IRIDIUM 63              
1 25286U 98021B   24259.90394917  .00001949  00000+0  66465-3 0  9999
2 25286  86.4047 197.0439 0002621  85.5009 274.6487 14.36000502384470
IRIDIUM 69              
1 25319U 98026A   24259.91343551  .00002689  00000+0  84381-3 0  9999
2 25319  86.4012 211.1375 0002380 143.0170 217.1194 14.40260177383575
IRIDIUM 71              
1 25320U 98026B   24259.89404424  .00002127  00000+0  66210-3 0  9993
2 25320  86.4023 205.8928 0000402  60.7101 299.4138 14.40565659384097
IRIDIUM 73              
1 25344U 98032C   24259.79865373  .00002606  00000+0  65581-3 0  9991
2 25344  86.4490 163.2692 0002247  98.7652 261.3807 14.50884547390760
IRIDIUM 82              
1 25467U 98051A   24259.93163174  .00028898  00000+0  13222-2 0  9999
2 25467  86.3704 242.5694 0114908 244.7030 114.2271 15.14578109382203
